{"type": "FeatureCollection", "features": [ {"type": "Feature", "properties": {"norad_id": 31566, "name": "FENGYUN 1C DEB", "group": "fengyun-1c-debris", "lat": 53.73059627505689, "lon": -110.06212328575819, "alt_km": 777.6618446916864, "timestamp": "2025-12-24T03:53:29.930305+00:00", "meta": {"OBJECT_NAME": "FENGYUN 1C DEB", "OBJECT_ID": "1999-025BZH", "EPOCH": "2025-12-22T10:10:01.850592", "MEAN_MOTION": 14.37499024, "ECCENTRICITY": 0.00231959, "INCLINATION": 98.9485, "RA_OF_ASC_NODE": 55.7294, "ARG_OF_PERICENTER": 324.6377, "MEAN_ANOMALY": 168.7471, "EPHEMERIS_TYPE": 0, "CLASSIFICATION_TYPE": "U", "NORAD_CAT_ID": 31566, "ELEMENT_SET_NO": 999, "REV_AT_EPOCH": 96530, "BSTAR": 0.002013301, "MEAN_MOTION_DOT": 6.004e-05, "MEAN_MOTION_DDOT": 0}, "tle": {"line1": "1 31566U 99025BZH 25356.42363253  .00006004  00000+0  20133-2 0  9995", "line2": "2 31566  98.9485  55.7294 0023195 324.6377 168.7471 14.37499024965300"}}, "geometry": {"type": "Point", "coordinates": [-110.06212328575819, 53.73059627505689]}}, {"type": "Feature", "properties": {"norad_id": 31567, "name": "FENGYUN 1C DEB", "group": "fengyun-1c-debris", "lat": 28.807279592718444, "lon": -138.30143487638463, "alt_km": 956.9930904998382, "timestamp": "2025-12-24T03:53:29.930315+00:00", "meta": {"OBJECT_NAME": "FENGYUN 1C DEB", "OBJECT_ID": "1999-025BZJ", "EPOCH": "2025-12-23T13:57:35.531136", "MEAN_MOTION": 13.92961473, "ECCENTRICITY": 0.0186422, "INCLINATION": 102.3177, "RA_OF_ASC_NODE": 227.8295, "ARG_OF_PERICENTER": 282.7935, "MEAN_ANOMALY": 75.244, "EPHEMERIS_TYPE": 0, "CLASSIFICATION_TYPE": "U", "NORAD_CAT_ID": 31567, "ELEMENT_SET_NO": 999, "REV_AT_EPOCH": 67560, "BSTAR": 0.0028018, "MEAN_MOTION_DOT": 4.129e-05, "MEAN_MOTION_DDOT": 0}, "tle": {"line1": "1 31567U 99025BZJ 25357.58166124  .00004129  00000+0  28018-2 0  9998", "line2": "2 31567 102.3177 227.8295 0186422 282.7935  75.2440 13.92961473675600"}}, "geometry": {"type": "Point", "coordinates": [-138.30143487638463, 28.807279592718444]}}, {"type": "Feature", "properties": {"norad_id": 31568, "name": "FENGYUN 1C DEB", "group": "fengyun-1c-debris", "lat": -77.60258361875577, "lon": -39.7358245803921, "alt_km": 979.0541922345474, "timestamp": "2025-12-24T03:53:29.930325+00:00", "meta": {"OBJECT_NAME": "FENGYUN 1C DEB", "OBJECT_ID": "1999-025BZK", "EPOCH": "2025-12-22T23:13:36.644736", "MEAN_MOTION": 14.03431945, "ECCENTRICITY": 0.01239953, "INCLINATION": 102.049, "RA_OF_ASC_NODE": 242.3634, "ARG_OF_PERICENTER": 93.8828, "MEAN_ANOMALY": 267.6513, "EPHEMERIS_TYPE": 0, "CLASSIFICATION_TYPE": "U", "NORAD_CAT_ID": 31568, "ELEMENT_SET_NO": 999, "REV_AT_EPOCH": 94723, "BSTAR": 0.0030433024, "MEAN_MOTION_DOT": 5.034e-05, "MEAN_MOTION_DDOT": 0}, "tle": {"line1": "1 31568U 99025BZK 25356.96778524  .00005034  00000+0  30433-2 0  9993", "line2": "2 31568 102.0490 242.3634 0123995  93.8828 267.6513 14.03431945947231"}}, "geometry": {"type": "Point", "coordinates": [-39.7358245803921, -77.60258361875577]}}, {"type": "Feature", "properties": {"norad_id": 31569, "name": "FENGYUN 1C DEB", "group": "fengyun-1c-debris", "lat": 43.21670732506203, "lon": -8.303913877126012, "alt_km": 1021.8162770444724, "timestamp": "2025-12-24T03:53:29.930347+00:00", "meta": {"OBJECT_NAME": "FENGYUN 1C DEB", "OBJECT_ID": "1999-025BZL", "EPOCH": "2025-12-23T05:44:20.685120", "MEAN_MOTION": 13.95594539, "ECCENTRICITY": 0.01745729, "INCLINATION": 102.6156, "RA_OF_ASC_NODE": 158.2896, "ARG_OF_PERICENTER": 340.7991, "MEAN_ANOMALY": 198.5492, "EPHEMERIS_TYPE": 0, "CLASSIFICATION_TYPE": "U", "NORAD_CAT_ID": 31569, "ELEMENT_SET_NO": 999, "REV_AT_EPOCH": 93825, "BSTAR": 0.002165206, "MEAN_MOTION_DOT": 3.274e-05, "MEAN_MOTION_DDOT": 0}, "tle": {"line1": "1 31569U 99025BZL 25357.23912830  .00003274  00000+0  21652-2 0  9992", "line2": "2 31569 102.6156 158.2896 0174572 340.7991 198.5492 13.95594539938253"}}, "geometry": {"type": "Point", "coordinates": [-8.303913877126012, 43.21670732506203]}}, {"type": "Feature", "properties": {"norad_id": 31570, "name": "FENGYUN 1C DEB", "group": "fengyun-1c-debris", "lat": 23.118569133919287, "lon": -132.55675030075034, "alt_km": 720.1839944565636, "timestamp": "2025-12-24T03:53:29.930358+00:00", "meta": {"OBJECT_NAME": "FENGYUN 1C DEB", "OBJECT_ID": "1999-025BZM", "EPOCH": "2025-12-19T23:45:35.930016", "MEAN_MOTION": 14.25330142, "ECCENTRICITY": 0.01547682, "INCLINATION": 102.5663, "RA_OF_ASC_NODE": 36.0247, "ARG_OF_PERICENTER": 206.1842, "MEAN_ANOMALY": 153.1437, "EPHEMERIS_TYPE": 0, "CLASSIFICATION_TYPE": "U", "NORAD_CAT_ID": 31570, "ELEMENT_SET_NO": 999, "REV_AT_EPOCH": 63470, "BSTAR": 0.0019503601, "MEAN_MOTION_DOT": 5.132e-05, "MEAN_MOTION_DDOT": 0}, "tle": {"line1": "1 31570U 99025BZM 25353.98999919  .00005132  00000+0  19504-2 0  9993", "line2": "2 31570 102.5663  36.0247 0154768 206.1842 153.1437 14.25330142634706"}}, "geometry": {"type": "Point", "coordinates": [-132.55675030075034, 23.118569133919287]}}, {"type": "Feature", "properties": {"norad_id": 31608, "name": "FENGYUN 1C DEB", "group": "fengyun-1c-debris", "lat": -35.52738692624813, "lon": -69.13020151248524, "alt_km": 699.6104339516451, "timestamp": "2025-12-24T03:53:29.930368+00:00", "meta": {"OBJECT_NAME": "FENGYUN 1C DEB", "OBJECT_ID": "1999-025BZN", "EPOCH": "2025-12-17T14:09:29.850912", "MEAN_MOTION": 14.85908283, "ECCENTRICITY": 0.01457059, "INCLINATION": 98.3797, "RA_OF_ASC_NODE": 109.9897, "ARG_OF_PERICENTER": 22.0076, "MEAN_ANOMALY": 338.7309, "EPHEMERIS_TYPE": 0, "CLASSIFICATION_TYPE": "U", "NORAD_CAT_ID": 31608, "ELEMENT_SET_NO": 999, "REV_AT_EPOCH": 98705, "BSTAR": 0.00045964647, "MEAN_MOTION_DOT": 4.79e-05, "MEAN_MOTION_DDOT": 0}, "tle": {"line1": "1 31608U 99025BZN 25351.58992883  .00004790  00000+0  45965-3 0  9992", "line2": "2 31608  98.3797 109.9897 0145705  22.0076 338.7309 14.85908283987055"}}, "geometry": {"type": "Point", "coordinates": [-69.13020151248524, -35.52738692624813]}}, {"type": "Feature", "properties": {"norad_id": 31609, "name": "FENGYUN 1C DEB", "group": "fengyun-1c-debris", "lat": 51.06719747685918, "lon": 15.481855943615097, "alt_km": 872.4966261594991, "timestamp": "2025-12-24T03:53:29.930379+00:00", "meta": {"OBJECT_NAME": "FENGYUN 1C DEB", "OBJECT_ID": "1999-025BZP", "EPOCH": "2025-12-22T21:42:13.279104", "MEAN_MOTION": 14.15844126, "ECCENTRICITY": 0.0094714, "INCLINATION": 99.2139, "RA_OF_ASC_NODE": 25.7728, "ARG_OF_PERICENTER": 291.5289, "MEAN_ANOMALY": 191.9396, "EPHEMERIS_TYPE": 0, "CLASSIFICATION_TYPE": "U", "NORAD_CAT_ID": 31609, "ELEMENT_SET_NO": 999, "REV_AT_EPOCH": 66228, "BSTAR": 0.002391, "MEAN_MOTION_DOT": 4.866e-05, "MEAN_MOTION_DDOT": 0}, "tle": {"line1": "1 31609U 99025BZP 25356.90432036  .00004866  00000+0  23910-2 0  9992", "line2": "2 31609  99.2139  25.7728 0094714 291.5289 191.9396 14.15844126662284"}}, "geometry": {"type": "Point", "coordinates": [15.481855943615097, 51.06719747685918]}}, {"type": "Feature", "properties": {"norad_id": 31612, "name": "FENGYUN 1C DEB", "group": "fengyun-1c-debris", "lat": 9.958655262140487, "lon": 101.07203125411888, "alt_km": 345.0988465522896, "timestamp": "2025-12-24T03:53:29.930390+00:00", "meta": {"OBJECT_NAME": "FENGYUN 1C DEB", "OBJECT_ID": "1999-025BZS", "EPOCH": "2025-12-23T13:27:58.666752", "MEAN_MOTION": 15.76213055, "ECCENTRICITY": 0.0029485, "INCLINATION": 100.335, "RA_OF_ASC_NODE": 278.3417, "ARG_OF_PERICENTER": 71.67, "MEAN_ANOMALY": 288.7759, "EPHEMERIS_TYPE": 0, "CLASSIFICATION_TYPE": "U", "NORAD_CAT_ID": 31612, "ELEMENT_SET_NO": 999, "REV_AT_EPOCH": 175, "BSTAR": 0.0021763, "MEAN_MOTION_DOT": 0.00363536, "MEAN_MOTION_DDOT": 0}, "tle": {"line1": "1 31612U 99025BZS 25357.56109568  .00363536  00000+0  21763-2 0  9996", "line2": "2 31612 100.3350 278.3417 0029485  71.6700 288.7759 15.76213055  1752"}}, "geometry": {"type": "Point", "coordinates": [101.07203125411888, 9.958655262140487]}}, {"type": "Feature", "properties": {"norad_id": 31613, "name": "FENGYUN 1C DEB", "group": "fengyun-1c-debris", "lat": 49.389328571471964, "lon": 173.75048492722132, "alt_km": 788.2129705136385, "timestamp": "2025-12-24T03:53:29.930400+00:00", "meta": {"OBJECT_NAME": "FENGYUN 1C DEB", "OBJECT_ID": "1999-025BZT", "EPOCH": "2025-12-20T06:18:56.611008", "MEAN_MOTION": 13.63462471, "ECCENTRICITY": 0.03426757, "INCLINATION": 98.4235, "RA_OF_ASC_NODE": 180.3179, "ARG_OF_PERICENTER": 86.1054, "MEAN_ANOMALY": 277.919, "EPHEMERIS_TYPE": 0, "CLASSIFICATION_TYPE": "U", "NORAD_CAT_ID": 31613, "ELEMENT_SET_NO": 999, "REV_AT_EPOCH": 91864, "BSTAR": 0.00096915007, "MEAN_MOTION_DOT": 1.104e-05, "MEAN_MOTION_DDOT": 0}, "tle": {"line1": "1 31613U 99025BZT 25354.26315522  .00001104  00000+0  96915-3 0  9992", "line2": "2 31613  98.4235 180.3179 0342675  86.1054 277.9190 13.63462471918647"}}, "geometry": {"type": "Point", "coordinates": [173.75048492722132, 49.389328571471964]}}, {"type": "Feature", "properties": {"norad_id": 31614, "name": "FENGYUN 1C DEB", "group": "fengyun-1c-debris", "lat": -55.64739086308045, "lon": 72.28604351462575, "alt_km": 577.7454019193547, "timestamp": "2025-12-24T03:53:29.930416+00:00", "meta": {"OBJECT_NAME": "FENGYUN 1C DEB", "OBJECT_ID": "1999-025BZU", "EPOCH": "2025-12-23T17:21:05.771808", "MEAN_MOTION": 14.99252513, "ECCENTRICITY": 0.0018183, "INCLINATION": 98.9726, "RA_OF_ASC_NODE": 265.1466, "ARG_OF_PERICENTER": 336.1404, "MEAN_ANOMALY": 51.7298, "EPHEMERIS_TYPE": 0, "CLASSIFICATION_TYPE": "U", "NORAD_CAT_ID": 31614, "ELEMENT_SET_NO": 999, "REV_AT_EPOCH": 96594, "BSTAR": 0.0072377, "MEAN_MOTION_DOT": 0.00089587, "MEAN_MOTION_DDOT": 0}, "tle": {"line1": "1 31614U 99025BZU 25357.72298347  .00089587  00000+0  72377-2 0  9998", "line2": "2 31614  98.9726 265.1466 0018183 336.1404  51.7298 14.99252513965946"}}, "geometry": {"type": "Point", "coordinates": [72.28604351462575, -55.64739086308045]}}]}